[{"OBJECT_NAME":"ONEWEB-0122","OBJECT_ID":"2020-100L","EPOCH":"2026-03-09T20:58:34.815648","MEAN_MOTION":13.12446756,"ECCENTRICITY":0.00019347,"INCLINATION":87.9007,"RA_OF_ASC_NODE":10.3679,"ARG_OF_PERICENTER":82.5867,"MEAN_ANOMALY":277.5481,"EPHEMERIS_TYPE":0,"CLASSIFICATION_TYPE":"U","NORAD_CAT_ID":47268,"ELEMENT_SET_NO":999,"REV_AT_EPOCH":25152,"BSTAR":-0.0003991612,"MEAN_MOTION_DOT":-1.31e-6,"MEAN_MOTION_DDOT":0},{"OBJECT_NAME":"COSMOS 839 DEB","OBJECT_ID":"1976-067AM","EPOCH":"2026-03-09T20:46:32.528064","MEAN_MOTION":12.63020635,"ECCENTRICITY":0.07008531,"INCLINATION":65.7986,"RA_OF_ASC_NODE":264.2188,"ARG_OF_PERICENTER":176.3288,"MEAN_ANOMALY":184.3265,"EPHEMERIS_TYPE":0,"CLASSIFICATION_TYPE":"U","NORAD_CAT_ID":10613,"ELEMENT_SET_NO":999,"REV_AT_EPOCH":27673,"BSTAR":0.0012208349,"MEAN_MOTION_DOT":5.15e-6,"MEAN_MOTION_DDOT":0}]
